{"type": "FeatureCollection", "features": [{"type": "Feature", "properties": {"norad_id": 24876, "name": "GPS BIIR-2  (PRN 13)", "group": "gnss", "lat": -46.70022044229921, "lon": 59.51985935732262, "alt_km": 20307.779349894143, "timestamp": "2025-12-24T14:43:29.244032+00:00", "meta": {"OBJECT_NAME": "GPS BIIR-2  (PRN 13)", "OBJECT_ID": "1997-035A", "EPOCH": "2025-12-23T04:52:08.851872", "MEAN_MOTION": 2.00563705, "ECCENTRICITY": 0.0096844, "INCLINATION": 55.9001, "RA_OF_ASC_NODE": 105.4597, "ARG_OF_PERICENTER": 56.9573, "MEAN_ANOMALY": 303.9609, "EPHEMERIS_TYPE": 0, "CLASSIFICATION_TYPE": "U", "NORAD_CAT_ID": 24876, "ELEMENT_SET_NO": 999, "REV_AT_EPOCH": 20842, "BSTAR": 0, "MEAN_MOTION_DOT": 2e-07, "MEAN_MOTION_DDOT": 0}, "tle": {"line1": "1 24876U 97035A   25357.20288023  .00000020  00000+0  00000+0 0  9998", "line2": "2 24876  55.9001 105.4597 0096844  56.9573 303.9609  2.00563705208420"}}, "geometry": {"type": "Point", "coordinates": [59.51985935732262, -46.70022044229921]}}, {"type": "Feature", "properties": {"norad_id": 26360, "name": "GPS BIIR-4  (PRN 20)", "group": "gnss", "lat": 25.542988980768882, "lon": 45.888680486465724, "alt_km": 20267.10265696418, "timestamp": "2025-12-24T14:43:29.244078+00:00", "meta": {"OBJECT_NAME": "GPS BIIR-4  (PRN 20)", "OBJECT_ID": "2000-025A", "EPOCH": "2025-12-24T00:51:46.954368", "MEAN_MOTION": 2.00566722, "ECCENTRICITY": 0.00388905, "INCLINATION": 55.0519, "RA_OF_ASC_NODE": 26.3811, "ARG_OF_PERICENTER": 243.065, "MEAN_ANOMALY": 91.4559, "EPHEMERIS_TYPE": 0, "CLASSIFICATION_TYPE": "U", "NORAD_CAT_ID": 26360, "ELEMENT_SET_NO": 999, "REV_AT_EPOCH": 18775, "BSTAR": 0, "MEAN_MOTION_DOT": -5.6e-07, "MEAN_MOTION_DDOT": 0}, "tle": {"line1": "1 26360U 00025A   25358.03596012 -.00000056  00000+0  00000+0 0  9993", "line2": "2 26360  55.0519  26.3811 0038890 243.0650  91.4559  2.00566722187754"}}, "geometry": {"type": "Point", "coordinates": [45.888680486465724, 25.542988980768882]}}, {"type": "Feature", "properties": {"norad_id": 26407, "name": "GPS BIIR-5  (PRN 22)", "group": "gnss", "lat": -38.69633062840922, "lon": 76.40799240172547, "alt_km": 20080.92750629513, "timestamp": "2025-12-24T14:43:29.244097+00:00", "meta": {"OBJECT_NAME": "GPS BIIR-5  (PRN 22)", "OBJECT_ID": "2000-040A", "EPOCH": "2025-12-24T00:49:48.055872", "MEAN_MOTION": 2.00568088, "ECCENTRICITY": 0.01253966, "INCLINATION": 54.8883, "RA_OF_ASC_NODE": 222.1199, "ARG_OF_PERICENTER": 301.9909, "MEAN_ANOMALY": 231.2222, "EPHEMERIS_TYPE": 0, "CLASSIFICATION_TYPE": "U", "NORAD_CAT_ID": 26407, "ELEMENT_SET_NO": 999, "REV_AT_EPOCH": 18643, "BSTAR": 0, "MEAN_MOTION_DOT": 6.5e-07, "MEAN_MOTION_DDOT": 0}, "tle": {"line1": "1 26407U 00040A   25358.03458398  .00000065  00000+0  00000+0 0  9995", "line2": "2 26407  54.8883 222.1199 0125396 301.9909 231.2222  2.00568088186433"}}, "geometry": {"type": "Point", "coordinates": [76.40799240172547, -38.69633062840922]}}, {"type": "Feature", "properties": {"norad_id": 27663, "name": "GPS BIIR-8  (PRN 16)", "group": "gnss", "lat": 4.866701481988738, "lon": -134.6513688809209, "alt_km": 19905.20364629423, "timestamp": "2025-12-24T14:43:29.244113+00:00", "meta": {"OBJECT_NAME": "GPS BIIR-8  (PRN 16)", "OBJECT_ID": "2003-005A", "EPOCH": "2025-12-23T07:51:19.360224", "MEAN_MOTION": 2.00570305, "ECCENTRICITY": 0.0147825, "INCLINATION": 54.921, "RA_OF_ASC_NODE": 221.9571, "ARG_OF_PERICENTER": 51.9554, "MEAN_ANOMALY": 106.5355, "EPHEMERIS_TYPE": 0, "CLASSIFICATION_TYPE": "U", "NORAD_CAT_ID": 27663, "ELEMENT_SET_NO": 999, "REV_AT_EPOCH": 16778, "BSTAR": 0, "MEAN_MOTION_DOT": 6.6e-07, "MEAN_MOTION_DDOT": 0}, "tle": {"line1": "1 27663U 03005A   25357.32730741  .00000066  00000+0  00000+0 0  9991", "line2": "2 27663  54.9210 221.9571 0147825  51.9554 106.5355  2.00570305167786"}}, "geometry": {"type": "Point", "coordinates": [-134.6513688809209, 4.866701481988738]}}, {"type": "Feature", "properties": {"norad_id": 28190, "name": "GPS BIIR-11 (PRN 19)", "group": "gnss", "lat": 11.842826491456398, "lon": 94.28803025449015, "alt_km": 19892.820710161017, "timestamp": "2025-12-24T14:43:29.244127+00:00", "meta": {"OBJECT_NAME": "GPS BIIR-11 (PRN 19)", "OBJECT_ID": "2004-009A", "EPOCH": "2025-12-22T01:59:41.237952", "MEAN_MOTION": 2.00560473, "ECCENTRICITY": 0.01084919, "INCLINATION": 54.9772, "RA_OF_ASC_NODE": 282.8425, "ARG_OF_PERICENTER": 167.7907, "MEAN_ANOMALY": 330.6754, "EPHEMERIS_TYPE": 0, "CLASSIFICATION_TYPE": "U", "NORAD_CAT_ID": 28190, "ELEMENT_SET_NO": 999, "REV_AT_EPOCH": 15939, "BSTAR": 0, "MEAN_MOTION_DOT": -2.4e-07, "MEAN_MOTION_DDOT": 0}, "tle": {"line1": "1 28190U 04009A   25356.08311618 -.00000024  00000+0  00000+0 0  9997", "line2": "2 28190  54.9772 282.8425 0108491 167.7907 330.6754  2.00560473159399"}}, "geometry": {"type": "Point", "coordinates": [94.28803025449015, 11.842826491456398]}}, {"type": "Feature", "properties": {"norad_id": 28474, "name": "GPS BIIR-13 (PRN 02)", "group": "gnss", "lat": -34.852838392296434, "lon": -179.17550445371936, "alt_km": 20143.71234163059, "timestamp": "2025-12-24T14:43:29.244140+00:00", "meta": {"OBJECT_NAME": "GPS BIIR-13 (PRN 02)", "OBJECT_ID": "2004-045A", "EPOCH": "2025-12-23T11:54:23.371776", "MEAN_MOTION": 2.0057002, "ECCENTRICITY": 0.01709537, "INCLINATION": 55.2353, "RA_OF_ASC_NODE": 331.9733, "ARG_OF_PERICENTER": 309.7322, "MEAN_ANOMALY": 189.3988, "EPHEMERIS_TYPE": 0, "CLASSIFICATION_TYPE": "U", "NORAD_CAT_ID": 28474, "ELEMENT_SET_NO": 999, "REV_AT_EPOCH": 15490, "BSTAR": 0, "MEAN_MOTION_DOT": -6.3e-07, "MEAN_MOTION_DDOT": 0}, "tle": {"line1": "1 28474U 04045A   25357.49610384 -.00000063  00000+0  00000+0 0  9993", "line2": "2 28474  55.2353 331.9733 0170953 309.7322 189.3988  2.00570020154901"}}, "geometry": {"type": "Point", "coordinates": [-179.17550445371936, -34.852838392296434]}}, {"type": "Feature", "properties": {"norad_id": 28874, "name": "GPS BIIRM-1 (PRN 17)", "group": "gnss", "lat": -3.162718247299726, "lon": 102.43061860847823, "alt_km": 20297.408648294077, "timestamp": "2025-12-24T14:43:29.244154+00:00", "meta": {"OBJECT_NAME": "GPS BIIRM-1 (PRN 17)", "OBJECT_ID": "2005-038A", "EPOCH": "2025-12-23T15:29:31.408224", "MEAN_MOTION": 2.005777, "ECCENTRICITY": 0.01313078, "INCLINATION": 55.0222, "RA_OF_ASC_NODE": 280.2619, "ARG_OF_PERICENTER": 293.8052, "MEAN_ANOMALY": 272.4454, "EPHEMERIS_TYPE": 0, "CLASSIFICATION_TYPE": "U", "NORAD_CAT_ID": 28874, "ELEMENT_SET_NO": 999, "REV_AT_EPOCH": 14831, "BSTAR": 0, "MEAN_MOTION_DOT": -2e-07, "MEAN_MOTION_DDOT": 0}, "tle": {"line1": "1 28874U 05038A   25357.64550241 -.00000020  00000+0  00000+0 0  9995", "line2": "2 28874  55.0222 280.2619 0131307 293.8052 272.4454  2.00577700148312"}}, "geometry": {"type": "Point", "coordinates": [102.43061860847823, -3.162718247299726]}}, {"type": "Feature", "properties": {"norad_id": 28899, "name": "INMARSAT 4-F2 (SOUTHPAN/PRN 122)", "group": "gnss", "lat": 3.9553897076404, "lon": 97.65282727887596, "alt_km": 35795.97561965011, "timestamp": "2025-12-24T14:43:29.244168+00:00", "meta": {"OBJECT_NAME": "INMARSAT 4-F2 (SOUTHPAN/PRN 122)", "OBJECT_ID": "2005-044A", "EPOCH": "2025-12-23T22:52:38.784288", "MEAN_MOTION": 1.00271112, "ECCENTRICITY": 0.00024043, "INCLINATION": 4.8648, "RA_OF_ASC_NODE": 43.7099, "ARG_OF_PERICENTER": 229.5084, "MEAN_ANOMALY": 306.1825, "EPHEMERIS_TYPE": 0, "CLASSIFICATION_TYPE": "U", "NORAD_CAT_ID": 28899, "ELEMENT_SET_NO": 999, "REV_AT_EPOCH": 7376, "BSTAR": 0, "MEAN_MOTION_DOT": -2.42e-06, "MEAN_MOTION_DDOT": 0}, "tle": {"line1": "1 28899U 05044A   25357.95322667 -.00000242  00000+0  00000+0 0  9998", "line2": "2 28899   4.8648  43.7099 0002404 229.5084 306.1825  1.00271112 73763"}}, "geometry": {"type": "Point", "coordinates": [97.65282727887596, 3.9553897076404]}}, {"type": "Feature", "properties": {"norad_id": 29486, "name": "GPS BIIRM-2 (PRN 31)", "group": "gnss", "lat": 54.63414082757615, "lon": -114.93642350490077, "alt_km": 19945.112755215112, "timestamp": "2025-12-24T14:43:29.244180+00:00", "meta": {"OBJECT_NAME": "GPS BIIRM-2 (PRN 31)", "OBJECT_ID": "2006-042A", "EPOCH": "2025-12-23T12:09:08.290944", "MEAN_MOTION": 2.00553717, "ECCENTRICITY": 0.01072791, "INCLINATION": 54.6953, "RA_OF_ASC_NODE": 158.3137, "ARG_OF_PERICENTER": 52.2028, "MEAN_ANOMALY": 315.7837, "EPHEMERIS_TYPE": 0, "CLASSIFICATION_TYPE": "U", "NORAD_CAT_ID": 29486, "ELEMENT_SET_NO": 999, "REV_AT_EPOCH": 14087, "BSTAR": 0, "MEAN_MOTION_DOT": 8.4e-07, "MEAN_MOTION_DDOT": 0}, "tle": {"line1": "1 29486U 06042A   25357.50634596  .00000084  00000+0  00000+0 0  9991", "line2": "2 29486  54.6953 158.3137 0107279  52.2028 315.7837  2.00553717140870"}}, "geometry": {"type": "Point", "coordinates": [-114.93642350490077, 54.63414082757615]}}, {"type": "Feature", "properties": {"norad_id": 29601, "name": "GPS BIIRM-3 (PRN 12)", "group": "gnss", "lat": 26.68591198979542, "lon": 20.296549964868557, "alt_km": 20056.749309240324, "timestamp": "2025-12-24T14:43:29.244193+00:00", "meta": {"OBJECT_NAME": "GPS BIIRM-3 (PRN 12)", "OBJECT_ID": "2006-052A", "EPOCH": "2025-12-22T22:00:58.169952", "MEAN_MOTION": 2.00574295, "ECCENTRICITY": 0.0087996, "INCLINATION": 54.9685, "RA_OF_ASC_NODE": 220.9942, "ARG_OF_PERICENTER": 87.562, "MEAN_ANOMALY": 273.5353, "EPHEMERIS_TYPE": 0, "CLASSIFICATION_TYPE": "U", "NORAD_CAT_ID": 29601, "ELEMENT_SET_NO": 999, "REV_AT_EPOCH": 13987, "BSTAR": 0, "MEAN_MOTION_DOT": 6.8e-07, "MEAN_MOTION_DDOT": 0}, "tle": {"line1": "1 29601U 06052A   25356.91733993  .00000068  00000+0  00000+0 0  9998", "line2": "2 29601  54.9685 220.9942 0087996  87.5620 273.5353  2.00574295139872"}}, "geometry": {"type": "Point", "coordinates": [20.296549964868557, 26.68591198979542]}}]}